NORAD_CAT_ID,OBJECT_NAME,OBJECT_TYPE,EPOCH,MEAN_MOTION,ECCENTRICITY,INCLINATION,RA_OF_ASC_NODE,ARG_OF_PERICENTER,MEAN_ANOMALY,BSTAR,MEAN_MOTION_DOT,MEAN_MOTION_DDOT,TLE_LINE0,TLE_LINE1,TLE_LINE2,SEMIMAJOR_AXIS,PERIOD,APOGEE,PERIGEE,DECAYED
55282.0,STARLINK-5330,PAYLOAD,2023-03-05 08:00:01,15.64286072,0.0003342,69.9999,302.9882,270.7114,306.4376,-0.012413,-0.01065605,0.0,0 STARLINK-5330,1 55282U 23010P   23064.33335648 -.01065605  00000-0 -12413-1 0  9995,2 55282  69.9999 302.9882 0003342 270.7114 306.4376 15.64286072  7547,6753.43,92.055,377.552,373.038,0.0
55282.0,STARLINK-5330,PAYLOAD,2023-03-05 14:00:01,15.63717726,0.0003398,70.0,302.2917,267.0484,277.1932,-0.012435,-0.01045913,0.0,0 STARLINK-5330,1 55282U 23010P   23064.58334491 -.01045913  00000-0 -12435-1 0  9991,2 55282  70.0000 302.2917 0003398 267.0484 277.1932 15.63717726  1309,6755.066,92.088,379.226,374.636,0.0
55282.0,STARLINK-5330,PAYLOAD,2023-03-05 22:00:00,15.6294099,0.0003632,69.9998,301.3639,270.1027,349.5766,-0.012786,-0.01043372,0.0,0 STARLINK-5330,1 55282U 23010P   23064.91667824 -.01043372  00000-0 -12786-1 0  9993,2 55282  69.9998 301.3639 0003632 270.1027 349.5766 15.62940990  1301,6757.304,92.134,381.623,376.715,0.0
55282.0,STARLINK-5330,PAYLOAD,2023-03-06 14:00:01,15.61437574,0.0003652,69.9992,299.5109,268.7123,139.0627,-0.013678,-0.01067771,0.0,0 STARLINK-5330,1 55282U 23010P   23065.58334491 -.01067771  00000-0 -13678-1 0  9998,2 55282  69.9992 299.5109 0003652 268.7123 139.0627 15.61437574  7736,6761.641,92.223,385.975,381.036,0.0
55282.0,STARLINK-5330,PAYLOAD,2023-03-06 22:00:00,15.60650916,0.0003617,69.9991,298.5857,274.9308,205.5455,-0.013792,-0.01030771,0.0,0 STARLINK-5330,1 55282U 23010P   23065.91667824 -.01030771  00000-0 -13792-1 0  9991,2 55282  69.9991 298.5857 0003617 274.9308 205.5455 15.60650916  1300,6763.913,92.269,388.224,383.331,0.0
55282.0,STARLINK-5330,PAYLOAD,2023-03-07 08:00:01,15.5972036,0.0003466,69.9989,297.4312,269.2499,30.7951,-0.014852,-0.01083557,0.0,0 STARLINK-5330,1 55282U 23010P   23066.33334491 -.01083557  00000-0 -14852-1 0  9997,2 55282  69.9989 297.4312 0003466 269.2499  30.7951 15.59720360  7855,6766.603,92.324,390.813,386.122,0.0
55282.0,STARLINK-5330,PAYLOAD,2023-03-07 22:00:00,15.58354274,0.0003553,69.9985,295.8177,272.9637,60.097,-0.014636,-0.01004671,0.0,0 STARLINK-5330,1 55282U 23010P   23066.91667824 -.01004671  00000-0 -14636-1 0  9990,2 55282  69.9985 295.8177 0003553 272.9637  60.0970 15.58354274  1301,6770.557,92.405,394.827,390.016,0.0
55282.0,STARLINK-5330,PAYLOAD,2023-03-08 16:00:00,15.56711029,0.0003352,69.9986,293.7473,264.8465,312.2351,-0.017259,-0.01119935,0.0,0 STARLINK-5330,1 55282U 23010P   23067.66667824 -.01119935  00000-0 -17259-1 0  9997,2 55282  69.9986 293.7473 0003352 264.8465 312.2351 15.56711029  8062,6775.32,92.503,399.457,394.914,0.0
55282.0,STARLINK-5330,PAYLOAD,2023-03-08 22:00:00,15.56070825,0.000327,69.9983,293.0584,271.036,266.3932,-0.015914,-0.01017714,0.0,0 STARLINK-5330,1 55282U 23010P   23067.91667824 -.01017714  00000-0 -15914-1 0  9993,2 55282  69.9983 293.0584 0003270 271.0360 266.3932 15.56070825  1304,6777.179,92.541,401.26,396.828,0.0
55282.0,STARLINK-5330,PAYLOAD,2023-03-09 08:00:01,15.55130746,0.0003358,69.9981,291.9114,267.7993,82.3575,-0.01691,-0.01042122,0.0,0 STARLINK-5330,1 55282U 23010P   23068.33334491 -.01042122  00000-0 -16910-1 0  9999,2 55282  69.9981 291.9114 0003358 267.7993  82.3575 15.55130746  8167,6779.91,92.597,404.051,399.498,0.0
55282.0,STARLINK-5330,PAYLOAD,2023-03-09 22:00:00,15.53792968,0.0003437,69.998,290.3088,274.8036,98.7765,-0.017381,-0.01021737,0.0,0 STARLINK-5330,1 55282U 23010P   23068.91667824 -.01021737  00000-0 -17381-1 0  9994,2 55282  69.9980 290.3088 0003437 274.8036  98.7765 15.53792968  1303,6783.801,92.676,407.997,403.334,0.0
55282.0,STARLINK-5330,PAYLOAD,2023-03-10 14:00:01,15.52316379,0.0003368,69.9983,288.4813,266.6307,233.1373,-0.019593,-0.01085222,0.0,0 STARLINK-5330,1 55282U 23010P   23069.58334491 -.01085222  00000-0 -19593-1 0  9995,2 55282  69.9983 288.4813 0003368 266.6307 233.1373 15.52316379  8363,6788.102,92.765,412.253,407.681,0.0
55282.0,STARLINK-5330,PAYLOAD,2023-03-10 22:00:00,15.51311011,0.0003458,69.9991,287.5688,271.2009,290.3385,-0.0023096,-0.0013398,0.0,0 STARLINK-5330,1 55282U 23010P   23069.91667824 -.00133980  00000-0 -23096-2 0  9999,2 55282  69.9991 287.5688 0003458 271.2009 290.3385 15.51311011  8414,6791.034,92.825,415.248,410.551,0.0
55282.0,STARLINK-5330,PAYLOAD,2023-03-11 06:00:00,15.51249153,0.0003561,69.9991,286.6571,269.3162,353.1764,-0.00097428,-0.00057036,0.0,0 STARLINK-5330,1 55282U 23010P   23070.25001157 -.00057036  00000-0 -97428-3 0  9997,2 55282  69.9991 286.6571 0003561 269.3162 353.1764 15.51249153  8469,6791.215,92.828,415.498,410.661,0.0
55282.0,STARLINK-5330,PAYLOAD,2023-03-11 14:00:01,15.5123932,0.0003621,70.0002,285.7457,265.2842,58.1842,-0.00011743,-7.061e-05,0.0,0 STARLINK-5330,1 55282U 23010P   23070.58335648 -.00007061  00000-0 -11743-3 0  9997,2 55282  70.0002 285.7457 0003621 265.2842  58.1842 15.51239320  1305,6791.244,92.829,415.568,410.649,0.0
55282.0,STARLINK-5330,PAYLOAD,2023-03-11 22:00:00,15.51196419,0.000359,70.0004,284.8341,272.3959,111.9413,0.00078176,0.00045978,0.0,0 STARLINK-5330,1 55282U 23010P   23070.91667824  .00045978  00000-0  78176-3 0  9998,2 55282  70.0004 284.8341 0003590 272.3959 111.9413 15.51196419  1305,6791.369,92.832,415.672,410.796,0.0
55282.0,STARLINK-5330,PAYLOAD,2023-03-12 10:00:00,15.51181287,0.000356,70.0003,283.467,267.9739,27.7201,0.0012776,0.00075486,0.0,0 STARLINK-5330,1 55282U 23010P   23071.41667824  .00075486  00000-0  12776-2 0  9994,2 55282  70.0003 283.4670 0003560 267.9739  27.7201 15.51181287  8647,6791.413,92.832,415.696,410.86,0.0
55282.0,STARLINK-5330,PAYLOAD,2023-03-12 14:00:01,15.51237106,0.0003571,70.0004,283.0119,265.3808,240.7606,0.00010996,6.302e-05,0.0,0 STARLINK-5330,1 55282U 23010P   23071.58334491  .00006302  00000-0  10996-3 0  9997,2 55282  70.0004 283.0119 0003571 265.3808 240.7606 15.51237106  1307,6791.25,92.829,415.54,410.69,0.0
55282.0,STARLINK-5330,PAYLOAD,2023-03-12 22:00:00,15.51393816,0.000357,70.0003,282.1004,270.9847,296.0737,-0.011547,-0.00630867,0.0,0 STARLINK-5330,1 55282U 23010P   23071.91667824 -.00630867  00000-0 -11547-1 0  9995,2 55282  70.0003 282.1004 0003570 270.9847 296.0737 15.51393816  8726,6790.793,92.82,415.082,410.233,0.0
55282.0,STARLINK-5330,PAYLOAD,2023-03-13 06:00:00,15.50971022,0.000351,70.0002,281.1894,270.1395,357.7705,-0.020892,-0.01100962,0.0,0 STARLINK-5330,1 55282U 23010P   23072.25001157 -.01100962  00000-0 -20892-1 0  9996,2 55282  70.0002 281.1894 0003510 270.1395 357.7705 15.50971022  8770,6792.027,92.845,416.276,411.508,0.0
55282.0,STARLINK-5330,PAYLOAD,2023-03-13 14:00:01,15.50214455,0.0003687,70.0008,280.2792,266.1988,61.8252,-0.021362,-0.01096292,0.0,0 STARLINK-5330,1 55282U 23010P   23072.58334491 -.01096292  00000-0 -21362-1 0  9995,2 55282  70.0008 280.2792 0003687 266.1988  61.8252 15.50214455  1303,6794.236,92.89,418.606,413.596,0.0
55282.0,STARLINK-5330,PAYLOAD,2023-03-13 22:00:00,15.49404236,0.0003693,70.0006,279.3698,274.1969,113.0498,-0.020525,-0.01029836,0.0,0 STARLINK-5330,1 55282U 23010P   23072.91667824 -.01029836  00000-0 -20525-1 0  9991,2 55282  70.0006 279.3698 0003693 274.1969 113.0498 15.49404236  8877,6796.605,92.939,420.98,415.96,0.0
55282.0,STARLINK-5330,PAYLOAD,2023-03-14 14:00:01,15.47926343,0.0003486,70.0007,277.5541,268.0516,234.845,-0.022986,-0.01088798,0.0,0 STARLINK-5330,1 55282U 23010P   23073.58334491 -.01088798  00000-0 -22986-1 0  9991,2 55282  70.0007 277.5541 0003486 268.0516 234.8450 15.47926343  8983,6800.93,93.028,425.166,420.424,0.0
55282.0,STARLINK-5330,PAYLOAD,2023-03-14 22:00:00,15.47112982,0.0003427,70.0007,276.6476,273.1888,286.1931,-0.021869,-0.01013956,0.0,0 STARLINK-5330,1 55282U 23010P   23073.91667824 -.01013956  00000-0 -21869-1 0  9990,2 55282  70.0007 276.6476 0003427 273.1888 286.1931 15.47112982  1303,6803.314,93.077,427.51,422.847,0.0
55282.0,STARLINK-5330,PAYLOAD,2023-03-15 14:00:01,15.45654281,0.0003654,70.0006,274.8385,266.1091,43.4401,-0.025364,-0.01124311,0.0,0 STARLINK-5330,1 55282U 23010P   23074.58334491 -.01124311  00000-0 -25364-1 0  9997,2 55282  70.0006 274.8385 0003654 266.1091  43.4401 15.45654281  1308,6807.593,93.164,431.946,426.971,0.0
55282.0,STARLINK-5330,PAYLOAD,2023-03-15 22:00:00,15.44831994,0.0003582,70.0004,273.9355,273.6237,89.6731,-0.023586,-0.01011134,0.0,0 STARLINK-5330,1 55282U 23010P   23074.91667824 -.01011134  00000-0 -23586-1 0  9995,2 55282  70.0004 273.9355 0003582 273.6237  89.6731 15.44831994  9187,6810.009,93.214,434.313,429.434,0.0
55282.0,STARLINK-5330,PAYLOAD,2023-03-16 06:00:00,15.44088474,0.0003486,70.0003,273.0335,272.3494,143.7627,-0.025392,-0.01056696,0.0,0 STARLINK-5330,1 55282U 23010P   23075.25001157 -.01056696  00000-0 -25392-1 0  9993,2 55282  70.0003 273.0335 0003486 272.3494 143.7627 15.44088474  9238,6812.195,93.259,436.434,431.685,0.0
55282.0,STARLINK-5330,PAYLOAD,2023-03-16 14:00:01,15.43375575,0.0003416,70.0006,272.1326,270.2594,197.7336,-0.027705,-0.01135119,0.0,0 STARLINK-5330,1 55282U 23010P   23075.58334491 -.01135119  00000-0 -27705-1 0  9997,2 55282  70.0006 272.1326 0003416 270.2594 197.7336 15.43375575  1308,6814.292,93.302,438.485,433.83,0.0
55282.0,STARLINK-5330,PAYLOAD,2023-03-16 22:00:00,15.42550926,0.000329,70.0002,271.2327,275.8739,243.1269,-0.025521,-0.01012339,0.0,0 STARLINK-5330,1 55282U 23010P   23075.91667824 -.01012339  00000-0 -25521-1 0  9995,2 55282  70.0002 271.2327 0003290 275.8739 243.1269 15.42550926  1302,6816.721,93.352,440.828,436.343,0.0
55282.0,STARLINK-5330,PAYLOAD,2023-03-17 08:00:01,15.41581165,0.0003427,70.0,270.1089,268.4318,43.0311,-0.025668,-0.00987881,0.0,0 STARLINK-5330,1 55282U 23010P   23076.33334491 -.00987881  00000-0 -25668-1 0  9997,2 55282  70.0000 270.1089 0003427 268.4318  43.0311 15.41581165  9408,6819.579,93.411,443.781,439.107,0.0
